{
  "type": "FeatureCollection",
  "features": [
    {
      "type": "Feature",
      "properties": {
        "norad_id": 66494,
        "name": "STARLINK-35689",
        "group": "last-30-days",
        "lat": 6.095864881598821,
        "lon": -11.40312400108623,
        "alt_km": 363.27394717577135,
        "timestamp": "2025-12-04T05:42:42.158167+00:00",
        "meta_object_name": "STARLINK-35689",
        "meta_object_id": "2025-263K",
        "meta_epoch": "2025-12-03T22:00:03.000096",
        "meta_mean_motion": 15.69573856,
        "meta_eccentricity": 0.00014155,
        "meta_inclination": 42.9993,
        "meta_ra_of_asc_node": 177.11,
        "meta_arg_of_pericenter": 275.4083,
        "meta_mean_anomaly": 238.7303,
        "meta_ephemeris_type": 0,
        "meta_classification_type": "U",
        "meta_norad_cat_id": 66494,
        "meta_element_set_no": 999,
        "meta_rev_at_epoch": 421,
        "meta_bstar": -0.017902253,
        "meta_mean_motion_dot": -0.01929615,
        "meta_mean_motion_ddot": 0,
        "tle_line1": "1 66494U 25263K   25337.91670139 -.01929615  00000+0 -17902-1 0  9997",
        "tle_line2": "2 66494  42.9993 177.1100 0001415 275.4083 238.7303 15.69573856  4212"
      },
      "geometry": {
        "type": "Point",
        "coordinates": [
          -11.40312400108623,
          6.095864881598821
        ]
      }
    },
    {
      "type": "Feature",
      "properties": {
        "norad_id": 66495,
        "name": "STARLINK-35832",
        "group": "last-30-days",
        "lat": 0.830993402060887,
        "lon": -5.732384269753399,
        "alt_km": 362.79353525097486,
        "timestamp": "2025-12-04T05:42:42.158177+00:00",
        "meta_object_name": "STARLINK-35832",
        "meta_object_id": "2025-263L",
        "meta_epoch": "2025-12-03T22:00:03.000096",
        "meta_mean_motion": 15.69057651,
        "meta_eccentricity": 0.00014321,
        "meta_inclination": 42.9993,
        "meta_ra_of_asc_node": 177.0914,
        "meta_arg_of_pericenter": 288.1902,
        "meta_mean_anomaly": 233.723,
        "meta_ephemeris_type": 0,
        "meta_classification_type": "U",
        "meta_norad_cat_id": 66495,
        "meta_element_set_no": 999,
        "meta_rev_at_epoch": 421,
        "meta_bstar": -0.00530651,
        "meta_mean_motion_dot": -0.00589468,
        "meta_mean_motion_ddot": 0,
        "tle_line1": "1 66495U 25263L   25337.91670139 -.00589468  00000+0 -53065-2 0  9996",
        "tle_line2": "2 66495  42.9993 177.0914 0001432 288.1902 233.7230 15.69057651  4219"
      },
      "geometry": {
        "type": "Point",
        "coordinates": [
          -5.732384269753399,
          0.830993402060887
        ]
      }
    },
    {
      "type": "Feature",
      "properties": {
        "norad_id": 66496,
        "name": "STARLINK-35909",
        "group": "last-30-days",
        "lat": -0.42714330380991206,
        "lon": -4.388320231536881,
        "alt_km": 363.9615280693424,
        "timestamp": "2025-12-04T05:42:42.158189+00:00",
        "meta_object_name": "STARLINK-35909",
        "meta_object_id": "2025-263M",
        "meta_epoch": "2025-12-03T22:00:03.000096",
        "meta_mean_motion": 15.69572388,
        "meta_eccentricity": 0.00014469,
        "meta_inclination": 42.9993,
        "meta_ra_of_asc_node": 177.0852,
        "meta_arg_of_pericenter": 274.3801,
        "meta_mean_anomaly": 249.3481,
        "meta_ephemeris_type": 0,
        "meta_classification_type": "U",
        "meta_norad_cat_id": 66496,
        "meta_element_set_no": 999,
        "meta_rev_at_epoch": 421,
        "meta_bstar": -0.017923138,
        "meta_mean_motion_dot": -0.01931526,
        "meta_mean_motion_ddot": 0,
        "tle_line1": "1 66496U 25263M   25337.91670139 -.01931526  00000+0 -17923-1 0  9996",
        "tle_line2": "2 66496  42.9993 177.0852 0001446 274.3801 249.3481 15.69572388  4211"
      },
      "geometry": {
        "type": "Point",
        "coordinates": [
          -4.388320231536881,
          -0.42714330380991206
        ]
      }
    },
    {
      "type": "Feature",
      "properties": {
        "norad_id": 66497,
        "name": "STARLINK-35899",
        "group": "last-30-days",
        "lat": -1.7353092991910959,
        "lon": -2.988849112618029,
        "alt_km": 364.1097353606574,
        "timestamp": "2025-12-04T05:42:42.158199+00:00",
        "meta_object_name": "STARLINK-35899",
        "meta_object_id": "2025-263N",
        "meta_epoch": "2025-12-03T22:00:03.000096",
        "meta_mean_motion": 15.69577116,
        "meta_eccentricity": 0.00013348,
        "meta_inclination": 42.9992,
        "meta_ra_of_asc_node": 177.0799,
        "meta_arg_of_pericenter": 275.6103,
        "meta_mean_anomaly": 250.0328,
        "meta_ephemeris_type": 0,
        "meta_classification_type": "U",
        "meta_norad_cat_id": 66497,
        "meta_element_set_no": 999,
        "meta_rev_at_epoch": 421,
        "meta_bstar": -0.017975793,
        "meta_mean_motion_dot": -0.019368,
        "meta_mean_motion_ddot": 0,
        "tle_line1": "1 66497U 25263N   25337.91670139 -.01936800  00000+0 -17976-1 0  9995",
        "tle_line2": "2 66497  42.9992 177.0799 0001334 275.6103 250.0328 15.69577116  4219"
      },
      "geometry": {
        "type": "Point",
        "coordinates": [
          -2.988849112618029,
          -1.7353092991910959
        ]
      }
    },
    {
      "type": "Feature",
      "properties": {
        "norad_id": 66498,
        "name": "STARLINK-35907",
        "group": "last-30-days",
        "lat": -3.0402610010697066,
        "lon": -1.5891536570347753,
        "alt_km": 364.20207545197445,
        "timestamp": "2025-12-04T05:42:42.158211+00:00",
        "meta_object_name": "STARLINK-35907",
        "meta_object_id": "2025-263P",
        "meta_epoch": "2025-12-03T22:00:03.000096",
        "meta_mean_motion": 15.69570751,
        "meta_eccentricity": 0.00014055,
        "meta_inclination": 42.9992,
        "meta_ra_of_asc_node": 177.0752,
        "meta_arg_of_pericenter": 273.6966,
        "meta_mean_anomaly": 253.8681,
        "meta_ephemeris_type": 0,
        "meta_classification_type": "U",
        "meta_norad_cat_id": 66498,
        "meta_element_set_no": 999,
        "meta_rev_at_epoch": 421,
        "meta_bstar": -0.017915658,
        "meta_mean_motion_dot": -0.01930663,
        "meta_mean_motion_ddot": 0,
        "tle_line1": "1 66498U 25263P   25337.91670139 -.01930663  00000+0 -17916-1 0  9991",
        "tle_line2": "2 66498  42.9992 177.0752 0001405 273.6966 253.8681 15.69570751  4214"
      },
      "geometry": {
        "type": "Point",
        "coordinates": [
          -1.5891536570347753,
          -3.0402610010697066
        ]
      }
    },
    {
      "type": "Feature",
      "properties": {
        "norad_id": 66499,
        "name": "STARLINK-35816",
        "group": "last-30-days",
        "lat": -5.644081280310909,
        "lon": 1.2220860465585224,
        "alt_km": 364.423667078584,
        "timestamp": "2025-12-04T05:42:42.158221+00:00",
        "meta_object_name": "STARLINK-35816",
        "meta_object_id": "2025-263Q",
        "meta_epoch": "2025-12-03T22:00:03.000096",
        "meta_mean_motion": 15.6957211,
        "meta_eccentricity": 0.00013821,
        "meta_inclination": 42.9992,
        "meta_ra_of_asc_node": 177.0658,
        "meta_arg_of_pericenter": 273.1854,
        "meta_mean_anomaly": 258.2094,
        "meta_ephemeris_type": 0,
        "meta_classification_type": "U",
        "meta_norad_cat_id": 66499,
        "meta_element_set_no": 999,
        "meta_rev_at_epoch": 421,
        "meta_bstar": -0.017894532,
        "meta_mean_motion_dot": -0.01928728,
        "meta_mean_motion_ddot": 0,
        "tle_line1": "1 66499U 25263Q   25337.91670139 -.01928728  00000+0 -17895-1 0  9997",
        "tle_line2": "2 66499  42.9992 177.0658 0001382 273.1854 258.2094 15.69572110  4213"
      },
      "geometry": {
        "type": "Point",
        "coordinates": [
          1.2220860465585224,
          -5.644081280310909
        ]
      }
    },
    {
      "type": "Feature",
      "properties": {
        "norad_id": 66500,
        "name": "STARLINK-35894",
        "group": "last-30-days",
        "lat": -1.7624032765672781,
        "lon": -2.9593800137401924,
        "alt_km": 368.39867733914434,
        "timestamp": "2025-12-04T05:42:42.158231+00:00",
        "meta_object_name": "STARLINK-35894",
        "meta_object_id": "2025-263R",
        "meta_epoch": "2025-12-03T22:00:03.000096",
        "meta_mean_motion": 15.68425619,
        "meta_eccentricity": 0.00012229,
        "meta_inclination": 42.9994,
        "meta_ra_of_asc_node": 177.0764,
        "meta_arg_of_pericenter": 273.5768,
        "meta_mean_anomaly": 253.6539,
        "meta_ephemeris_type": 0,
        "meta_classification_type": "U",
        "meta_norad_cat_id": 66500,
        "meta_element_set_no": 999,
        "meta_rev_at_epoch": 421,
        "meta_bstar": -0.023978412,
        "meta_mean_motion_dot": -0.02439137,
        "meta_mean_motion_ddot": 0,
        "tle_line1": "1 66500U 25263R   25337.91670139 -.02439137  00000+0 -23978-1 0  9991",
        "tle_line2": "2 66500  42.9994 177.0764 0001222 273.5768 253.6539 15.68425619  4210"
      },
      "geometry": {
        "type": "Point",
        "coordinates": [
          -2.9593800137401924,
          -1.7624032765672781
        ]
      }
    }
  ]
}